{"type": "FeatureCollection", "features": [ {"type": "Feature", "properties": {"norad_id": 30013, "name": "FENGYUN 1C DEB", "group": "fengyun-1c-debris", "lat": 33.23485015911713, "lon": -2.0934268878956988, "alt_km": 843.3767838121676, "timestamp": "2025-12-10T21:43:22.361074+00:00", "meta": {"OBJECT_NAME": "FENGYUN 1C DEB", "OBJECT_ID": "1999-025MN", "EPOCH": "2025-12-10T07:48:20.729088", "MEAN_MOTION": 13.87823063, "ECCENTRICITY": 0.0128296, "INCLINATION": 99.5804, "RA_OF_ASC_NODE": 3.6655, "ARG_OF_PERICENTER": 50.4249, "MEAN_ANOMALY": 328.1781, "EPHEMERIS_TYPE": 0, "CLASSIFICATION_TYPE": "U", "NORAD_CAT_ID": 30013, "ELEMENT_SET_NO": 999, "REV_AT_EPOCH": 95648, "BSTAR": 0.00034243, "MEAN_MOTION_DOT": 3.88e-06, "MEAN_MOTION_DDOT": 0}, "tle": {"line1": "1 30013U 99025MN  25344.32523992  .00000388  00000+0  34243-3 0  9992", "line2": "2 30013  99.5804   3.6655 0128296  50.4249 328.1781 13.87823063956484"}}, "geometry": {"type": "Point", "coordinates": [-2.0934268878956988, 33.23485015911713]}}, {"type": "Feature", "properties": {"norad_id": 30015, "name": "FENGYUN 1C DEB", "group": "fengyun-1c-debris", "lat": -34.78771474686837, "lon": -5.8402340433630355, "alt_km": 821.9566713613667, "timestamp": "2025-12-10T21:43:22.361084+00:00", "meta": {"OBJECT_NAME": "FENGYUN 1C DEB", "OBJECT_ID": "1999-025MQ", "EPOCH": "2025-12-09T21:15:58.082688", "MEAN_MOTION": 14.30785734, "ECCENTRICITY": 0.00384878, "INCLINATION": 99.2287, "RA_OF_ASC_NODE": 346.5936, "ARG_OF_PERICENTER": 133.0522, "MEAN_ANOMALY": 345.9284, "EPHEMERIS_TYPE": 0, "CLASSIFICATION_TYPE": "U", "NORAD_CAT_ID": 30015, "ELEMENT_SET_NO": 999, "REV_AT_EPOCH": 98132, "BSTAR": 0.00080106897, "MEAN_MOTION_DOT": 2.067e-05, "MEAN_MOTION_DDOT": 0}, "tle": {"line1": "1 30015U 99025MQ  25343.88608892  .00002067  00000+0  80107-3 0  9993", "line2": "2 30015  99.2287 346.5936 0038487 133.0522 345.9284 14.30785734981320"}}, "geometry": {"type": "Point", "coordinates": [-5.8402340433630355, -34.78771474686837]}}, {"type": "Feature", "properties": {"norad_id": 30016, "name": "FENGYUN 1C DEB", "group": "fengyun-1c-debris", "lat": 40.621115917853004, "lon": -175.5949245041911, "alt_km": 632.1183566624431, "timestamp": "2025-12-10T21:43:22.361095+00:00", "meta": {"OBJECT_NAME": "FENGYUN 1C DEB", "OBJECT_ID": "1999-025MR", "EPOCH": "2025-12-10T00:07:14.174688", "MEAN_MOTION": 14.78385817, "ECCENTRICITY": 0.00471463, "INCLINATION": 98.9057, "RA_OF_ASC_NODE": 355.6808, "ARG_OF_PERICENTER": 49.4916, "MEAN_ANOMALY": 340.9598, "EPHEMERIS_TYPE": 0, "CLASSIFICATION_TYPE": "U", "NORAD_CAT_ID": 30016, "ELEMENT_SET_NO": 999, "REV_AT_EPOCH": 99413, "BSTAR": 0.0026512283, "MEAN_MOTION_DOT": 0.00019654, "MEAN_MOTION_DDOT": 0}, "tle": {"line1": "1 30016U 99025MR  25344.00502517  .00019654  00000+0  26512-2 0  9995", "line2": "2 30016  98.9057 355.6808 0047146  49.4916 340.9598 14.78385817994136"}}, "geometry": {"type": "Point", "coordinates": [-175.5949245041911, 40.621115917853004]}}, {"type": "Feature", "properties": {"norad_id": 30017, "name": "FENGYUN 1C DEB", "group": "fengyun-1c-debris", "lat": 30.37326187485072, "lon": 24.206418354080004, "alt_km": 819.7362935610608, "timestamp": "2025-12-10T21:43:22.361105+00:00", "meta": {"OBJECT_NAME": "FENGYUN 1C DEB", "OBJECT_ID": "1999-025MS", "EPOCH": "2025-12-10T01:51:16.368192", "MEAN_MOTION": 14.611862, "ECCENTRICITY": 0.02173463, "INCLINATION": 98.7545, "RA_OF_ASC_NODE": 28.5119, "ARG_OF_PERICENTER": 183.2736, "MEAN_ANOMALY": 176.7055, "EPHEMERIS_TYPE": 0, "CLASSIFICATION_TYPE": "U", "NORAD_CAT_ID": 30017, "ELEMENT_SET_NO": 999, "REV_AT_EPOCH": 405, "BSTAR": 0.00026016044, "MEAN_MOTION_DOT": 1.726e-05, "MEAN_MOTION_DDOT": 0}, "tle": {"line1": "1 30017U 99025MS  25344.07727278  .00001726  00000+0  26016-3 0  9997", "line2": "2 30017  98.7545  28.5119 0217346 183.2736 176.7055 14.61186200  4059"}}, "geometry": {"type": "Point", "coordinates": [24.206418354080004, 30.37326187485072]}}, {"type": "Feature", "properties": {"norad_id": 30018, "name": "FENGYUN 1C DEB", "group": "fengyun-1c-debris", "lat": -12.905145238212755, "lon": 69.42438061302495, "alt_km": 723.1246229964636, "timestamp": "2025-12-10T21:43:22.361115+00:00", "meta": {"OBJECT_NAME": "FENGYUN 1C DEB", "OBJECT_ID": "1999-025MT", "EPOCH": "2025-12-10T12:04:30.417312", "MEAN_MOTION": 14.73136012, "ECCENTRICITY": 0.01166798, "INCLINATION": 98.7556, "RA_OF_ASC_NODE": 66.9674, "ARG_OF_PERICENTER": 202.4733, "MEAN_ANOMALY": 173.2147, "EPHEMERIS_TYPE": 0, "CLASSIFICATION_TYPE": "U", "NORAD_CAT_ID": 30018, "ELEMENT_SET_NO": 999, "REV_AT_EPOCH": 404, "BSTAR": 0.0013332822, "MEAN_MOTION_DOT": 9.519e-05, "MEAN_MOTION_DDOT": 0}, "tle": {"line1": "1 30018U 99025MT  25344.50312983  .00009519  00000+0  13333-2 0  9994", "line2": "2 30018  98.7556  66.9674 0116679 202.4733 173.2147 14.73136012  4044"}}, "geometry": {"type": "Point", "coordinates": [69.42438061302495, -12.905145238212755]}}, {"type": "Feature", "properties": {"norad_id": 30020, "name": "FENGYUN 1C DEB", "group": "fengyun-1c-debris", "lat": 1.9877086007585398, "lon": 169.0726553171623, "alt_km": 907.0301546126502, "timestamp": "2025-12-10T21:43:22.361126+00:00", "meta": {"OBJECT_NAME": "FENGYUN 1C DEB", "OBJECT_ID": "1999-025MV", "EPOCH": "2025-12-10T07:17:45.807360", "MEAN_MOTION": 14.04458561, "ECCENTRICITY": 0.0184002, "INCLINATION": 98.847, "RA_OF_ASC_NODE": 348.177, "ARG_OF_PERICENTER": 77.289, "MEAN_ANOMALY": 300.9161, "EPHEMERIS_TYPE": 0, "CLASSIFICATION_TYPE": "U", "NORAD_CAT_ID": 30020, "ELEMENT_SET_NO": 999, "REV_AT_EPOCH": 96624, "BSTAR": 0.00082905, "MEAN_MOTION_DOT": 1.496e-05, "MEAN_MOTION_DDOT": 0}, "tle": {"line1": "1 30020U 99025MV  25344.30400240  .00001496  00000+0  82905-3 0  9997", "line2": "2 30020  98.8470 348.1770 0184002  77.2890 300.9161 14.04458561966246"}}, "geometry": {"type": "Point", "coordinates": [169.0726553171623, 1.9877086007585398]}}, {"type": "Feature", "properties": {"norad_id": 30021, "name": "FENGYUN 1C DEB", "group": "fengyun-1c-debris", "lat": -24.268563649488552, "lon": -19.49842310730112, "alt_km": 844.1207910081957, "timestamp": "2025-12-10T21:43:22.361136+00:00", "meta": {"OBJECT_NAME": "FENGYUN 1C DEB", "OBJECT_ID": "1999-025MW", "EPOCH": "2025-12-10T12:09:55.944864", "MEAN_MOTION": 14.04889722, "ECCENTRICITY": 0.00720257, "INCLINATION": 98.8353, "RA_OF_ASC_NODE": 336.0927, "ARG_OF_PERICENTER": 293.3949, "MEAN_ANOMALY": 188.6368, "EPHEMERIS_TYPE": 0, "CLASSIFICATION_TYPE": "U", "NORAD_CAT_ID": 30021, "ELEMENT_SET_NO": 999, "REV_AT_EPOCH": 96900, "BSTAR": 0.00032925497, "MEAN_MOTION_DOT": 4.98e-06, "MEAN_MOTION_DDOT": 0}, "tle": {"line1": "1 30021U 99025MW  25344.50689751  .00000498  00000+0  32925-3 0  9994", "line2": "2 30021  98.8353 336.0927 0072025 293.3949 188.6368 14.04889722969008"}}, "geometry": {"type": "Point", "coordinates": [-19.49842310730112, -24.268563649488552]}}, {"type": "Feature", "properties": {"norad_id": 30022, "name": "FENGYUN 1C DEB", "group": "fengyun-1c-debris", "lat": 61.80998911311274, "lon": 30.305876270280034, "alt_km": 853.0035164577394, "timestamp": "2025-12-10T21:43:22.361146+00:00", "meta": {"OBJECT_NAME": "FENGYUN 1C DEB", "OBJECT_ID": "1999-025MX", "EPOCH": "2025-12-10T08:31:46.545312", "MEAN_MOTION": 14.23131187, "ECCENTRICITY": 0.0066578, "INCLINATION": 99.0723, "RA_OF_ASC_NODE": 192.3953, "ARG_OF_PERICENTER": 276.0705, "MEAN_ANOMALY": 266.1827, "EPHEMERIS_TYPE": 0, "CLASSIFICATION_TYPE": "U", "NORAD_CAT_ID": 30022, "ELEMENT_SET_NO": 999, "REV_AT_EPOCH": 98158, "BSTAR": 0.00011970739, "MEAN_MOTION_DOT": 2.29e-06, "MEAN_MOTION_DDOT": 0}, "tle": {"line1": "1 30022U 99025MX  25344.35539983  .00000229  00000+0  11971-3 0  9999", "line2": "2 30022  99.0723 192.3953 0066578 276.0705 266.1827 14.23131187981584"}}, "geometry": {"type": "Point", "coordinates": [30.305876270280034, 61.80998911311274]}}, {"type": "Feature", "properties": {"norad_id": 30023, "name": "FENGYUN 1C DEB", "group": "fengyun-1c-debris", "lat": 56.97712404498419, "lon": 12.992217185431787, "alt_km": 826.9264009142507, "timestamp": "2025-12-10T21:43:22.361157+00:00", "meta": {"OBJECT_NAME": "FENGYUN 1C DEB", "OBJECT_ID": "1999-025MY", "EPOCH": "2025-12-10T12:55:24.932928", "MEAN_MOTION": 14.11857964, "ECCENTRICITY": 0.00471915, "INCLINATION": 99.2939, "RA_OF_ASC_NODE": 178.0206, "ARG_OF_PERICENTER": 69.6333, "MEAN_ANOMALY": 349.2298, "EPHEMERIS_TYPE": 0, "CLASSIFICATION_TYPE": "U", "NORAD_CAT_ID": 30023, "ELEMENT_SET_NO": 999, "REV_AT_EPOCH": 97165, "BSTAR": 0.00059353253, "MEAN_MOTION_DOT": 1.048e-05, "MEAN_MOTION_DDOT": 0}, "tle": {"line1": "1 30023U 99025MY  25344.53848302  .00001048  00000+0  59353-3 0  9994", "line2": "2 30023  99.2939 178.0206 0047191  69.6333 349.2298 14.11857964971658"}}, "geometry": {"type": "Point", "coordinates": [12.992217185431787, 56.97712404498419]}}, {"type": "Feature", "properties": {"norad_id": 30028, "name": "FENGYUN 1C DEB", "group": "fengyun-1c-debris", "lat": 69.1566648840685, "lon": 179.2714034400827, "alt_km": 770.2215545641002, "timestamp": "2025-12-10T21:43:22.361168+00:00", "meta": {"OBJECT_NAME": "FENGYUN 1C DEB", "OBJECT_ID": "1999-025ND", "EPOCH": "2025-12-10T06:19:07.806720", "MEAN_MOTION": 14.5547293, "ECCENTRICITY": 0.0174157, "INCLINATION": 98.1457, "RA_OF_ASC_NODE": 336.5468, "ARG_OF_PERICENTER": 236.0861, "MEAN_ANOMALY": 113.738, "EPHEMERIS_TYPE": 0, "CLASSIFICATION_TYPE": "U", "NORAD_CAT_ID": 30028, "ELEMENT_SET_NO": 999, "REV_AT_EPOCH": 99685, "BSTAR": 0.0005838, "MEAN_MOTION_DOT": 3.062e-05, "MEAN_MOTION_DDOT": 0}, "tle": {"line1": "1 30028U 99025ND  25344.26328480  .00003062  00000+0  58380-3 0  9996", "line2": "2 30028  98.1457 336.5468 0174157 236.0861 113.7380 14.55472930996855"}}, "geometry": {"type": "Point", "coordinates": [179.2714034400827, 69.1566648840685]}}]}